[
    {
        "Altitude(m)": 558585.9496336548,
        "Argument of Periapsis(deg)": 0.013245982221427002,
        "Eccentricity": 0.0,
        "Inclination(deg)": 53.0,
        "Latitude(deg)": -19.002334586807034,
        "Longitude(deg)": 8.3797722851617,
        "Mean Anomaly(deg)": -156.18041426484484,
        "RAAN(deg)": 274.980286737056,
        "Satellite Name": "Starlink Shell 1 1221",
        "Satellite Number": 1221,
        "Semi-Major Axis(m)": 6931778.249405717,
        "Time(s)": 380
    },
    {
        "Altitude(m)": 558740.9909810016,
        "Argument of Periapsis(deg)": 0.013594560700938237,
        "Eccentricity": 0.0,
        "Inclination(deg)": 53.0,
        "Latitude(deg)": -19.487697707287982,
        "Longitude(deg)": 8.760290575523815,
        "Mean Anomaly(deg)": -155.5535830612881,
        "RAAN(deg)": 274.97976796697856,
        "Satellite Name": "Starlink Shell 1 1221",
        "Satellite Number": 1221,
        "Semi-Major Axis(m)": 6931778.249405717,
        "Time(s)": 390
    },
    {
        "Altitude(m)": 558897.5532092424,
        "Argument of Periapsis(deg)": 0.013943139180449475,
        "Eccentricity": 0.0,
        "Inclination(deg)": 53.0,
        "Latitude(deg)": -19.972032419251832,
        "Longitude(deg)": 9.143312534310194,
        "Mean Anomaly(deg)": -154.9267518577314,
        "RAAN(deg)": 274.9792491969011,
        "Satellite Name": "Starlink Shell 1 1221",
        "Satellite Number": 1221,
        "Semi-Major Axis(m)": 6931778.249405717,
        "Time(s)": 400
    },
    {
        "Altitude(m)": 559055.5822560255,
        "Argument of Periapsis(deg)": 0.014291717659960712,
        "Eccentricity": 0.0,
        "Inclination(deg)": 53.0,
        "Latitude(deg)": -20.45530564110974,
        "Longitude(deg)": 9.528916240161568,
        "Mean Anomaly(deg)": -154.29992065417468,
        "RAAN(deg)": 274.97873042682363,
        "Satellite Name": "Starlink Shell 1 1221",
        "Satellite Number": 1221,
        "Semi-Major Axis(m)": 6931778.249405717,
        "Time(s)": 410
    },
    {
        "Altitude(m)": 559215.023255647,
        "Argument of Periapsis(deg)": 0.014640296139471948,
        "Eccentricity": 0.0,
        "Inclination(deg)": 53.0,
        "Latitude(deg)": -20.937483703267002,
        "Longitude(deg)": 9.91718030287286,
        "Mean Anomaly(deg)": -153.673089450618,
        "RAAN(deg)": 274.9782116567461,
        "Satellite Name": "Starlink Shell 1 1221",
        "Satellite Number": 1221,
        "Semi-Major Axis(m)": 6931778.249405717,
        "Time(s)": 420
    },
    {
        "Altitude(m)": 559375.8205634967,
        "Argument of Periapsis(deg)": 0.014988874618983185,
        "Eccentricity": 0.0,
        "Inclination(deg)": 53.0,
        "Latitude(deg)": -21.418532326892382,
        "Longitude(deg)": 10.308184391803962,
        "Mean Anomaly(deg)": -153.04625824706122,
        "RAAN(deg)": 274.97769288666865,
        "Satellite Name": "Starlink Shell 1 1221",
        "Satellite Number": 1221,
        "Semi-Major Axis(m)": 6931778.249405717,
        "Time(s)": 430
    },
    {
        "Altitude(m)": 559537.917780857,
        "Argument of Periapsis(deg)": 0.015337453098494424,
        "Eccentricity": 0.0,
        "Inclination(deg)": 53.0,
        "Latitude(deg)": -21.898416602210713,
        "Longitude(deg)": 10.70200976374056,
        "Mean Anomaly(deg)": -152.4194270435045,
        "RAAN(deg)": 274.97717411659124,
        "Satellite Name": "Starlink Shell 1 1221",
        "Satellite Number": 1221,
        "Semi-Major Axis(m)": 6931778.249405717,
        "Time(s)": 440
    },
    {
        "Altitude(m)": 559701.257780067,
        "Argument of Periapsis(deg)": 0.01568603157800566,
        "Eccentricity": 0.0,
        "Inclination(deg)": 53.0,
        "Latitude(deg)": -22.3771009663138,
        "Longitude(deg)": 11.098738277256528,
        "Mean Anomaly(deg)": -151.79259583994784,
        "RAAN(deg)": 274.9766553465137,
        "Satellite Name": "Starlink Shell 1 1221",
        "Satellite Number": 1221,
        "Semi-Major Axis(m)": 6931778.249405717,
        "Time(s)": 450
    },
    {
        "Altitude(m)": 559865.7827300535,
        "Argument of Periapsis(deg)": 0.0160346100575169,
        "Eccentricity": 0.0,
        "Inclination(deg)": 53.0,
        "Latitude(deg)": -22.854549180476255,
        "Longitude(deg)": 11.498452919242613,
        "Mean Anomaly(deg)": -151.16576463639106,
        "RAAN(deg)": 274.9761365764362,
        "Satellite Name": "Starlink Shell 1 1221",
        "Satellite Number": 1221,
        "Semi-Major Axis(m)": 6931778.249405717,
        "Time(s)": 460
    },
    {
        "Altitude(m)": 560031.434122154,
        "Argument of Periapsis(deg)": 0.016383188537028134,
        "Eccentricity": 0.0,
        "Inclination(deg)": 53.0,
        "Latitude(deg)": -23.330724306970613,
        "Longitude(deg)": 11.90123833063618,
        "Mean Anomaly(deg)": -150.53893343283443,
        "RAAN(deg)": 274.9756178063588,
        "Satellite Name": "Starlink Shell 1 1221",
        "Satellite Number": 1221,
        "Semi-Major Axis(m)": 6931778.249405717,
        "Time(s)": 470
    },
    {
        "Altitude(m)": 560198.1527963107,
        "Argument of Periapsis(deg)": 0.01673176701653937,
        "Eccentricity": 0.0,
        "Inclination(deg)": 53.0,
        "Latitude(deg)": -23.805588685380478,
        "Longitude(deg)": 12.307179818383576,
        "Mean Anomaly(deg)": -149.91210222927762,
        "RAAN(deg)": 274.97509903628134,
        "Satellite Name": "Starlink Shell 1 1221",
        "Satellite Number": 1221,
        "Semi-Major Axis(m)": 6931778.249405717,
        "Time(s)": 480
    },
    {
        "Altitude(m)": 560365.8789675246,
        "Argument of Periapsis(deg)": 0.017080345496050607,
        "Eccentricity": 0.0,
        "Inclination(deg)": 53.0,
        "Latitude(deg)": -24.27910390839847,
        "Longitude(deg)": 12.716363879274407,
        "Mean Anomaly(deg)": -149.28527102572096,
        "RAAN(deg)": 274.9745802662038,
        "Satellite Name": "Starlink Shell 1 1221",
        "Satellite Number": 1221,
        "Semi-Major Axis(m)": 6931778.249405717,
        "Time(s)": 490
    },
    {
        "Altitude(m)": 560534.552252635,
        "Argument of Periapsis(deg)": 0.017428923975561842,
        "Eccentricity": 0.0,
        "Inclination(deg)": 53.0,
        "Latitude(deg)": -24.751230797110352,
        "Longitude(deg)": 13.12887872266196,
        "Mean Anomaly(deg)": -148.65843982216427,
        "RAAN(deg)": 274.97406149612635,
        "Satellite Name": "Starlink Shell 1 1221",
        "Satellite Number": 1221,
        "Semi-Major Axis(m)": 6931778.249405717,
        "Time(s)": 500
    },
    {
        "Altitude(m)": 560704.1116973667,
        "Argument of Periapsis(deg)": 0.01777750245507308,
        "Eccentricity": 0.0,
        "Inclination(deg)": 53.0,
        "Latitude(deg)": -25.221929375762905,
        "Longitude(deg)": 13.544813279071988,
        "Mean Anomaly(deg)": -148.03160861860758,
        "RAAN(deg)": 274.9735427260489,
        "Satellite Name": "Starlink Shell 1 1221",
        "Satellite Number": 1221,
        "Semi-Major Axis(m)": 6931778.249405717,
        "Time(s)": 510
    },
    {
        "Altitude(m)": 560874.4958036545,
        "Argument of Periapsis(deg)": 0.018126080934584315,
        "Eccentricity": 0.0,
        "Inclination(deg)": 53.0,
        "Latitude(deg)": -25.691158846010943,
        "Longitude(deg)": 13.96425772031514,
        "Mean Anomaly(deg)": -147.40477741505077,
        "RAAN(deg)": 274.9730239559714,
        "Satellite Name": "Starlink Shell 1 1221",
        "Satellite Number": 1221,
        "Semi-Major Axis(m)": 6931778.249405717,
        "Time(s)": 520
    },
    {
        "Altitude(m)": 561045.6425571988,
        "Argument of Periapsis(deg)": 0.018474659414095554,
        "Eccentricity": 0.0,
        "Inclination(deg)": 53.0,
        "Latitude(deg)": -26.158877560644303,
        "Longitude(deg)": 14.387303978084983,
        "Mean Anomaly(deg)": -146.77794621149408,
        "RAAN(deg)": 274.97250518589397,
        "Satellite Name": "Starlink Shell 1 1221",
        "Satellite Number": 1221,
        "Semi-Major Axis(m)": 6931778.249405717,
        "Time(s)": 530
    },
    {
        "Altitude(m)": 561217.4894552659,
        "Argument of Periapsis(deg)": 0.018823237893606792,
        "Eccentricity": 0.0,
        "Inclination(deg)": 53.0,
        "Latitude(deg)": -26.62504299680208,
        "Longitude(deg)": 14.814044748017022,
        "Mean Anomaly(deg)": -146.1511150079374,
        "RAAN(deg)": 274.97198641581645,
        "Satellite Name": "Starlink Shell 1 1221",
        "Satellite Number": 1221,
        "Semi-Major Axis(m)": 6931778.249405717,
        "Time(s)": 540
    },
    {
        "Altitude(m)": 561389.9735347491,
        "Argument of Periapsis(deg)": 0.019171816373118027,
        "Eccentricity": 0.0,
        "Inclination(deg)": 53.0,
        "Latitude(deg)": -27.089611728670217,
        "Longitude(deg)": 15.24457400478835,
        "Mean Anomaly(deg)": -145.52428380438073,
        "RAAN(deg)": 274.971467645739,
        "Satellite Name": "Starlink Shell 1 1221",
        "Satellite Number": 1221,
        "Semi-Major Axis(m)": 6931778.249405717,
        "Time(s)": 550
    },
    {
        "Altitude(m)": 561563.0314003825,
        "Argument of Periapsis(deg)": 0.019520394852629266,
        "Eccentricity": 0.0,
        "Inclination(deg)": 53.0,
        "Latitude(deg)": -27.55253939967331,
        "Longitude(deg)": 15.678987515208492,
        "Mean Anomaly(deg)": -144.8974526008239,
        "RAAN(deg)": 274.9709488756616,
        "Satellite Name": "Starlink Shell 1 1221",
        "Satellite Number": 1221,
        "Semi-Major Axis(m)": 6931778.249405717,
        "Time(s)": 560
    }
]